IRIDIUM 39              
1 25042U 97069D   25362.82326252  .00000999  00000+0  25487-3 0  9997
2 25042  86.3931 127.7345 0018256  22.7845 337.4165 14.49530526477156
IRIDIUM 38              
1 25043U 97069E   25362.70052397  .00000685  00000+0  21875-3 0  9990
2 25043  86.3981 151.3966 0002856 135.0601 225.0828 14.38330430473919
IRIDIUM 42              
1 25077U 97077A   25362.80714580  .00000605  00000+0  19946-3 0  9994
2 25077  86.3987 157.7594 0001991 115.0817 245.0587 14.36546946469137
IRIDIUM 44              
1 25078U 97077B   25362.79161458  .00000538  00000+0  16317-3 0  9997
2 25078  86.3978 139.1819 0003906 100.2529 259.9111 14.40445908471711
IRIDIUM 45              
1 25104U 97082A   25362.35433704  .00044419  00000+0  12314-2 0  9999
2 25104  86.3543 312.9785 0093911 321.4993  37.9580 15.32344756481669
IRIDIUM 24              
1 25105U 97082B   25362.51186898  .00000634  00000+0  18571-3 0  9990
2 25105  86.3907 357.8584 0012411 146.3886 213.8104 14.42343185471223
IRIDIUM 51              
1 25262U 98018A   25362.83650627  .00130359  00000+0  12182-2 0  9994
2 25262  86.3722 317.9578 0046226 203.7593 156.1542 15.65475112477162
IRIDIUM 57              
1 25273U 98019B   25362.58930961  .00000438  00000+0  14383-3 0  9991
2 25273  86.3945  63.7415 0002247  97.2498 262.8954 14.36063451452680
